COSMOS 1933             
1 18958U 88020A   22304.42533518  .00002182  00000+0  15120-3 0  9995
2 18958  82.5319   8.8505 0012670  84.7019 275.5653 15.05099985865252
SL-3 R/B                
1 19046U 88032B   22304.45121801  .00002884  00000+0  20856-3 0  9999
2 19046  97.4026 297.4895 0037679 133.0318 227.4075 15.04222513867053
SL-16 R/B               
1 19120U 88039B   22304.26872169 -.00000022  00000+0  12342-4 0  9993
2 19120  71.0129 138.9522 0020060  56.1425 304.1605 14.19265229784498
COSMOS 1953             
1 19210U 88050A   22304.33743911  .00003937  00000+0  25395-3 0  9994
2 19210  82.5135 288.5462 0014068  55.7878 304.4681 15.07953740852038
SL-8 R/B                
1 19257U 88053B   22304.23613383  .00000263  00000+0  96198-4 0  9995
2 19257  74.0494 208.8492 0020907 330.4276 146.8524 14.37657204800412
COSMOS 1975             
1 19573U 88093A   22304.41279277  .00004330  00000+0  28752-3 0  9999
2 19573  82.5192 244.6002 0015708  91.4376 268.8651 15.06885864833756
SL-14 R/B               
1 19574U 88093B   22304.46133192  .00000573  00000+0  66319-4 0  9997
2 19574  82.5288 110.1519 0022727 123.8892 265.9008 14.83584694819259
SL-16 R/B               
1 19650U 88102B   22304.18323977 -.00000082  00000+0 -17667-4 0  9993
2 19650  71.0010 209.4026 0011966  73.4752 286.7685 14.15847587753418
INTERCOSMOS 24          
1 20261U 89080A   22304.13096498  .00000520  00000+0  15638-3 0  9999
2 20261  82.6061 179.8890 1199688 249.8966  96.9285 12.56567662512692
SL-14 R/B               
1 20262U 89080C   22304.27344092  .00000323  00000+0  88052-4 0  9993
2 20262  82.5948 239.2561 1236948 102.8221 271.3680 12.49113356507078
DELTA 2 R/B(1)          
1 20303U 89085B   22304.38241435  .00026966  00000+0  60263-3 0  9997
2 20303  35.6381 301.3608 0069940 357.1078   2.9242 15.39965332801381
DELTA 1 R/B             
1 20323U 89089B   22304.29822514  .00000377  00000+0  10592-3 0  9994
2 20323  97.0690 324.0905 0072174  27.8237 332.6790 14.48592552718209
ARIANE 40 R/B           
1 20443U 90005H   22304.42483804  .00000302  00000+0  11373-3 0  9993
2 20443  98.4696  10.4598 0009283 280.1390  79.8750 14.38296415716585
DELTA 2 R/B(1)          
1 20453U 90008B   22304.35318815  .00009853  00000+0  50285-3 0  9993
2 20453  35.6218 175.8823 0260677 353.4843   6.2516 14.91183671740195
COSMOS 2058             
1 20465U 90010A   22304.31432888  .00001680  00000+0  13527-3 0  9990
2 20465  82.4881 159.6545 0015522 154.9418 205.2562 14.99265005757981
SL-14 R/B               
1 20466U 90010B   22304.37351233  .00000408  00000+0  48736-4 0  9999
2 20466  82.5025 336.3151 0020821  16.8783 343.3119 14.81624743746933
SL-14 R/B               
1 20511U 90018B   22304.48597115  .00000482  00000+0  60086-4 0  9995
2 20511  82.5198 286.4527 0018051 152.7645 357.5263 14.80270317741212
HST                     
1 20580U 90037B   22304.44348025  .00003766  00000+0  20818-3 0  9998
2 20580  28.4715 347.3767 0002779  70.3715  20.5847 15.11152397586807
SL-16 R/B               
1 20625U 90046B   22304.40388614 -.00000081  00000+0 -17074-4 0  9992
2 20625  70.9997 350.5540 0014186 357.0452   3.0585 14.14704601675081
COSMOS 2084             
1 20663U 90055A   22304.33188458  .00002777  00000+0  24173-3 0  9999
2 20663  62.7915 155.1859 0127730  63.6914 297.7235 14.93376026752585
SL-6 R/B(2)             
1 20666U 90055D   22304.42799514  .00002602  00000+0  22315-3 0  9996
2 20666  62.7846  68.9890 0132456  85.6893 275.9324 14.93689578754564
SL-8 R/B                
1 20775U 90078B   22304.30694675  .00021227  00000+0  97860-3 0  9992
2 20775  82.9253 229.7328 0544243  22.1654 340.2117 14.41825347630081
SL-8 R/B                
1 21088U 91006B   22304.40397965  .00000041  00000+0  26079-4 0  9991
2 21088  82.9453   1.3729 0021676 223.9995 146.7390 13.77218555595402
OKEAN-3                 
1 21397U 91039A   22304.40497628  .00002724  00000+0  25195-3 0  9994
2 21397  82.5211  73.1285 0018163 146.2173 214.0209 14.94074302681470
COSMOS 2151             
1 21422U 91042A   22304.39706374  .00001341  00000+0  12670-3 0  9994
2 21422  82.5018 178.2045 0012869 213.9330 146.1068 14.92945665679965
SL-14 R/B               
1 21423U 91042B   22304.34680650  .00000512  00000+0  64571-4 0  9995
2 21423  82.4907 287.5261 0016221 305.3742  54.5955 14.80015905671720
ERS-1                   
1 21574U 91050A   22304.38657323  .00000230  00000+0  90836-4 0  9996
2 21574  98.7156 274.9862 0031871 234.1241 125.6985 14.37956320639556
ARIANE 40 R/B           
1 21610U 91050F   22304.21012959  .00000337  00000+0  11805-3 0  9995
2 21610  98.3675  10.9896 0003610 158.9158 201.2181 14.41135596642387
INTERCOSMOS 25          
1 21819U 91086A   22304.10108366  .00001925  00000+0  38803-3 0  9992
2 21819  82.6035 327.3491 1512447 226.3789 120.1720 12.06113831348584
SL-8 R/B                
1 21876U 92008B   22304.39165328  .00000004  00000+0 -11692-4 0  9998
2 21876  82.9236  98.7858 0033936 317.8381  69.1976 13.75715335540935
SL-8 R/B                
1 21938U 92020B   22304.35558405  .00000013  00000+0 -29485-5 0  9999
2 21938  82.9311 343.6955 0030539 116.5934 254.3290 13.75316596532699
COSMOS 2219             
1 22219U 92076A   22304.37941127 -.00000080  00000+0 -17204-4 0  9992
2 22219  71.0598  58.7316 0020485 271.5433  88.3343 14.13703802545183
SL-16 R/B               
1 22220U 92076B   22304.29586500 -.00000184  00000+0 -68277-4 0  9996
2 22220  71.0001 248.8802 0012380 173.7873 293.5929 14.16512755548284
COSMOS 2221             
1 22236U 92080A   22304.24826601  .00001396  00000+0  14644-3 0  9994
2 22236  82.5100   5.2473 0015614 331.3382  28.6976 14.88763438598039
SL-16 R/B               
1 22285U 92093B   22304.38440443 -.00000242  00000+0 -10024-3 0  9992
2 22285  71.0227  55.8041 0004440 343.6287  16.4692 14.15105719539793
COSMOS 2228             
1 22286U 92094A   22304.46954203  .00001550  00000+0  16136-3 0  9998
2 22286  82.5179 322.2983 0022309  84.0420 276.3340 14.89026016593264
SL-16 R/B               
1 22566U 93016B   22304.32094388 -.00000117  00000+0 -35979-4 0  9995
2 22566  71.0062 268.1671 0009428  15.3099 344.8307 14.15013017528816
COSMOS 2242             
1 22626U 93024A   22304.20178635  .00001388  00000+0  14502-3 0  9993
2 22626  82.5226 351.0565 0020135  85.5732 274.7786 14.88852700597602
SL-16 R/B               
1 22803U 93059B   22304.38748311  .00000153  00000+0  10030-3 0  9992
2 22803  70.9903  74.3141 0019566 276.5073  83.3822 14.16885060505951
ARIANE 40 R/B           
1 22830U 93061H   22304.46124980  .00000225  00000+0  10130-3 0  9995
2 22830  98.6486   6.8723 0009913 302.4745  57.5479 14.31605509518725
COSMOS 2278             
1 23087U 94023A   22304.16555402  .00000364  00000+0  21670-3 0  9998
2 23087  71.0539 218.0705 0007055 104.4155 255.7751 14.13886934471558
SL-16 R/B               
1 23088U 94023B   22304.49941989 -.00000327  00000+0 -14521-3 0  9992
2 23088  70.9977 123.2987 0004249 323.6642  36.4192 14.14724250472793
SL-16 R/B               
1 23343U 94074B   22304.40733708  .00000457  00000+0  71798-4 0  9993
2 23343  97.8761 354.2932 0005726 229.6356 146.1670 14.77129215506236
SL-16 R/B               
1 23405U 94077B   22304.39009526  .00000088  00000+0  69856-4 0  9999
2 23405  70.9848  49.6500 0004580 247.8375 112.2262 14.15273577442850
ERS-2                   
1 23560U 95021A   22304.36439169  .00011576  00000+0  41909-3 0  9990
2 23560  98.4993 228.6368 0005008  89.5255 270.6555 15.28595340474065
ARIANE 40+ R/B          
1 23561U 95021B   22304.14217428  .00000313  00000+0  11779-3 0  9998
2 23561  98.6073   1.8832 0006729 193.8027 220.2167 14.38217095442996
SL-16 R/B               
1 23705U 95058B   22304.26337944  .00000276  00000+0  16652-3 0  9990
2 23705  71.0231 232.3161 0012990 197.1524 162.9162 14.15188030394465
SL-16 R/B               
1 24298U 96051B   22304.28976598  .00000126  00000+0  94560-4 0  9997
2 24298  70.8235 244.1715 0015766 160.2943 199.8790 14.12445675348610
ORBVIEW 2 (SEASTAR)     
1 24883U 97037A   22304.31022113  .00000338  00000+0  13762-3 0  9990
2 24883  98.6979  68.2432 0003293  78.8491 281.3064 14.33812358332778
SL-16 R/B               
1 25400U 98043G   22304.38341659  .00000094  00000+0  58272-4 0  9995
2 25400  98.6825 239.0653 0009528 340.0693  20.0113 14.25537529264381
SL-16 R/B               
1 25407U 98045B   22304.23105759  .00000031  00000+0  40029-4 0  9999
2 25407  71.0113 237.9764 0005209  95.7353 264.4364 14.15872839253624
ISS (ZARYA)             
1 25544U 98067A   22304.51317130  .00016748  00000+0  30494-3 0  9990
2 25544  51.6438  21.2332 0006312  23.9726 155.8350 15.49597428366324
CZ-4B R/B               
1 25732U 99025C   22304.16031528  .00000090  00000+0  65825-4 0  9999
2 25732  98.8389 344.9929 0036310 259.2815 170.2873 14.17752557214482
OKEAN-O                 
1 25860U 99039A   22304.14971353  .00000572  00000+0  88454-4 0  9991
2 25860  98.1238 345.0836 0001210  68.5767 291.5571 14.77067497253288
SL-16 R/B               
1 25861U 99039B   22304.06656883  .00000540  00000+0  80607-4 0  9998
2 25861  98.1683 333.2470 0014231 255.5796 104.3835 14.78940699255543
DELTA 2 R/B             
1 25876U 99041E   22304.52148126  .00000748  00000+0  16624-3 0  9991
2 25876  51.7630 129.8435 0528536 351.1819   8.0097 14.05362286190350
HELIOS 1B               
1 25977U 99064A   22304.50834299  .00000719  00000+0  95824-4 0  9997
2 25977  98.3124 144.1866 0002455  80.1242 280.0248 14.82921775503448
TERRA                   
1 25994U 99068A   22304.48659962  .00000518  00000+0  12031-3 0  9994
2 25994  98.1239  13.2369 0002790  78.8419 338.4951 14.58896284216313
SL-16 R/B               
1 26070U 00006B   22304.28243214 -.00000021  00000+0  13522-4 0  9998
2 26070  71.0006 153.7699 0018703 249.6064 110.3050 14.15502211175130
